{
  "type": "FeatureCollection",
  "features": [
    {
      "type": "Feature",
      "properties": {
        "norad_id": 31005,
        "name": "FENGYUN 1C DEB",
        "group": "fengyun-1c-debris",
        "lat": 27.59653536463407,
        "lon": -54.010033146075,
        "alt_km": 1081.632968581086,
        "timestamp": "2025-12-13T18:50:04.710982+00:00",
        "meta_object_name": "FENGYUN 1C DEB",
        "meta_object_id": "1999-025BCX",
        "meta_epoch": "2025-12-12T20:16:39.526752",
        "meta_mean_motion": 13.83279712,
        "meta_eccentricity": 0.01806635,
        "meta_inclination": 98.6126,
        "meta_ra_of_asc_node": 120.5853,
        "meta_arg_of_pericenter": 325.1186,
        "meta_mean_anomaly": 189.343,
        "meta_ephemeris_type": 0,
        "meta_classification_type": "U",
        "meta_norad_cat_id": 31005,
        "meta_element_set_no": 999,
        "meta_rev_at_epoch": 94282,
        "meta_bstar": 0.0015552407,
        "meta_mean_motion_dot": 1.896e-05,
        "meta_mean_motion_ddot": 0,
        "tle_line1": "1 31005U 99025BCX 25346.84490193  .00001896  00000+0  15552-2 0  9995",
        "tle_line2": "2 31005  98.6126 120.5853 0180663 325.1186 189.3430 13.83279712942823"
      },
      "geometry": {
        "type": "Point",
        "coordinates": [
          -54.010033146075,
          27.59653536463407
        ]
      }
    },
    {
      "type": "Feature",
      "properties": {
        "norad_id": 31007,
        "name": "FENGYUN 1C DEB",
        "group": "fengyun-1c-debris",
        "lat": 36.83015498308454,
        "lon": 165.6730003065336,
        "alt_km": 709.1394804602305,
        "timestamp": "2025-12-13T18:50:04.710992+00:00",
        "meta_object_name": "FENGYUN 1C DEB",
        "meta_object_id": "1999-025BCZ",
        "meta_epoch": "2025-12-13T05:01:04.367712",
        "meta_mean_motion": 14.58666919,
        "meta_eccentricity": 0.0067455,
        "meta_inclination": 98.0876,
        "meta_ra_of_asc_node": 338.9995,
        "meta_arg_of_pericenter": 36.5937,
        "meta_mean_anomaly": 323.9843,
        "meta_ephemeris_type": 0,
        "meta_classification_type": "U",
        "meta_norad_cat_id": 31007,
        "meta_element_set_no": 999,
        "meta_rev_at_epoch": 98101,
        "meta_bstar": 0.0037929171,
        "meta_mean_motion_dot": 0.00018241,
        "meta_mean_motion_ddot": 0,
        "tle_line1": "1 31007U 99025BCZ 25347.20907833  .00018241  00000+0  37929-2 0  9996",
        "tle_line2": "2 31007  98.0876 338.9995 0067455  36.5937 323.9843 14.58666919981013"
      },
      "geometry": {
        "type": "Point",
        "coordinates": [
          165.6730003065336,
          36.83015498308454
        ]
      }
    },
    {
      "type": "Feature",
      "properties": {
        "norad_id": 31009,
        "name": "FENGYUN 1C DEB",
        "group": "fengyun-1c-debris",
        "lat": -12.103765142700434,
        "lon": 161.6548959246279,
        "alt_km": 868.2733846996498,
        "timestamp": "2025-12-13T18:50:04.711004+00:00",
        "meta_object_name": "FENGYUN 1C DEB",
        "meta_object_id": "1999-025BDB",
        "meta_epoch": "2025-12-13T05:59:47.249952",
        "meta_mean_motion": 14.00365037,
        "meta_eccentricity": 0.00528583,
        "meta_inclination": 98.8974,
        "meta_ra_of_asc_node": 343.0595,
        "meta_arg_of_pericenter": 235.8031,
        "meta_mean_anomaly": 141.501,
        "meta_ephemeris_type": 0,
        "meta_classification_type": "U",
        "meta_norad_cat_id": 31009,
        "meta_element_set_no": 999,
        "meta_rev_at_epoch": 95868,
        "meta_bstar": 0.00023260279,
        "meta_mean_motion_dot": 3.05e-06,
        "meta_mean_motion_ddot": 0,
        "tle_line1": "1 31009U 99025BDB 25347.24985243  .00000305  00000+0  23260-3 0  9999",
        "tle_line2": "2 31009  98.8974 343.0595 0052858 235.8031 141.5010 14.00365037958686"
      },
      "geometry": {
        "type": "Point",
        "coordinates": [
          161.6548959246279,
          -12.103765142700434
        ]
      }
    },
    {
      "type": "Feature",
      "properties": {
        "norad_id": 31010,
        "name": "FENGYUN 1C DEB",
        "group": "fengyun-1c-debris",
        "lat": -9.84280786725822,
        "lon": 137.19338064735405,
        "alt_km": 728.3040459763888,
        "timestamp": "2025-12-13T18:50:04.711014+00:00",
        "meta_object_name": "FENGYUN 1C DEB",
        "meta_object_id": "1999-025BDC",
        "meta_epoch": "2025-12-13T05:24:29.058048",
        "meta_mean_motion": 14.25820196,
        "meta_eccentricity": 0.01133228,
        "meta_inclination": 101.7243,
        "meta_ra_of_asc_node": 134.3825,
        "meta_arg_of_pericenter": 353.1907,
        "meta_mean_anomaly": 6.7717,
        "meta_ephemeris_type": 0,
        "meta_classification_type": "U",
        "meta_norad_cat_id": 31010,
        "meta_element_set_no": 999,
        "meta_rev_at_epoch": 95636,
        "meta_bstar": 0.0055357591,
        "meta_mean_motion_dot": 0.00014046,
        "meta_mean_motion_ddot": 0,
        "tle_line1": "1 31010U 99025BDC 25347.22533632  .00014046  00000+0  55358-2 0  9999",
        "tle_line2": "2 31010 101.7243 134.3825 0113322 353.1907   6.7717 14.25820196956366"
      },
      "geometry": {
        "type": "Point",
        "coordinates": [
          137.19338064735405,
          -9.84280786725822
        ]
      }
    },
    {
      "type": "Feature",
      "properties": {
        "norad_id": 31012,
        "name": "FENGYUN 1C DEB",
        "group": "fengyun-1c-debris",
        "lat": 76.67606203783983,
        "lon": 107.39647299484972,
        "alt_km": 841.2263251285194,
        "timestamp": "2025-12-13T18:50:04.711025+00:00",
        "meta_object_name": "FENGYUN 1C DEB",
        "meta_object_id": "1999-025BDE",
        "meta_epoch": "2025-12-12T23:56:07.545984",
        "meta_mean_motion": 14.27863425,
        "meta_eccentricity": 0.00813036,
        "meta_inclination": 98.9115,
        "meta_ra_of_asc_node": 245.1021,
        "meta_arg_of_pericenter": 250.6674,
        "meta_mean_anomaly": 124.203,
        "meta_ephemeris_type": 0,
        "meta_classification_type": "U",
        "meta_norad_cat_id": 31012,
        "meta_element_set_no": 999,
        "meta_rev_at_epoch": 97751,
        "meta_bstar": 0.00029008337,
        "meta_mean_motion_dot": 6.97e-06,
        "meta_mean_motion_ddot": 0,
        "tle_line1": "1 31012U 99025BDE 25346.99730956  .00000697  00000+0  29008-3 0  9993",
        "tle_line2": "2 31012  98.9115 245.1021 0081303 250.6674 124.2030 14.27863425977515"
      },
      "geometry": {
        "type": "Point",
        "coordinates": [
          107.39647299484972,
          76.67606203783983
        ]
      }
    },
    {
      "type": "Feature",
      "properties": {
        "norad_id": 31014,
        "name": "FENGYUN 1C DEB",
        "group": "fengyun-1c-debris",
        "lat": -65.94555396044494,
        "lon": 122.88508981306673,
        "alt_km": 871.0469497263975,
        "timestamp": "2025-12-13T18:50:04.711036+00:00",
        "meta_object_name": "FENGYUN 1C DEB",
        "meta_object_id": "1999-025BDG",
        "meta_epoch": "2025-12-12T21:11:51.712224",
        "meta_mean_motion": 13.98491234,
        "meta_eccentricity": 0.00877695,
        "meta_inclination": 98.869,
        "meta_ra_of_asc_node": 322.4883,
        "meta_arg_of_pericenter": 192.9788,
        "meta_mean_anomaly": 197.3149,
        "meta_ephemeris_type": 0,
        "meta_classification_type": "U",
        "meta_norad_cat_id": 31014,
        "meta_element_set_no": 999,
        "meta_rev_at_epoch": 95838,
        "meta_bstar": 0.00030421084,
        "meta_mean_motion_dot": 4.08e-06,
        "meta_mean_motion_ddot": 0,
        "tle_line1": "1 31014U 99025BDG 25346.88323741  .00000408  00000+0  30421-3 0  9994",
        "tle_line2": "2 31014  98.8690 322.4883 0087769 192.9788 197.3149 13.98491234958383"
      },
      "geometry": {
        "type": "Point",
        "coordinates": [
          122.88508981306673,
          -65.94555396044494
        ]
      }
    },
    {
      "type": "Feature",
      "properties": {
        "norad_id": 31016,
        "name": "FENGYUN 1C DEB",
        "group": "fengyun-1c-debris",
        "lat": 58.98902908271377,
        "lon": -162.12644975611542,
        "alt_km": 854.4427402411839,
        "timestamp": "2025-12-13T18:50:04.711047+00:00",
        "meta_object_name": "FENGYUN 1C DEB",
        "meta_object_id": "1999-025BDJ",
        "meta_epoch": "2025-12-12T21:01:11.154720",
        "meta_mean_motion": 14.30494708,
        "meta_eccentricity": 0.01119425,
        "meta_inclination": 98.4364,
        "meta_ra_of_asc_node": 2.6981,
        "meta_arg_of_pericenter": 273.7537,
        "meta_mean_anomaly": 208.5383,
        "meta_ephemeris_type": 0,
        "meta_classification_type": "U",
        "meta_norad_cat_id": 31016,
        "meta_element_set_no": 999,
        "meta_rev_at_epoch": 97472,
        "meta_bstar": 0.00043051264,
        "meta_mean_motion_dot": 1.156e-05,
        "meta_mean_motion_ddot": 0,
        "tle_line1": "1 31016U 99025BDJ 25346.87582355  .00001156  00000+0  43051-3 0  9997",
        "tle_line2": "2 31016  98.4364   2.6981 0111942 273.7537 208.5383 14.30494708974723"
      },
      "geometry": {
        "type": "Point",
        "coordinates": [
          -162.12644975611542,
          58.98902908271377
        ]
      }
    }
  ]
}